AEROCUBE 6B             
1 40046U 14033AN  26068.42625992  .00007941  00000+0  66368-3 0  9998
2 40046  97.7129 236.1645 0037452 343.2300  16.7681 14.98232474631816
STARLINK-5487           
1 55652U 23021AA  26068.69390068  .00000299  00000+0  32877-4 0  9994
2 55652  70.0013 184.3814 0003146 267.4295  92.6504 14.98333844168798
